{"type":"FeatureCollection","metadata":{"map_id":"thu-duc-2025","title":"12 phường thuộc địa bàn Thành phố Thủ Đức cũ (từ 01/07/2025)","effective_date":"2025-07-01","legal_source":"Nghị quyết 1685/NQ-UBTVQH15","legal_source_url":"https://vanban.chinhphu.vn/?pageid=27160&docid=214007","geometry_source":"Vietnamese Provinces Database","geometry_source_url":"https://github.com/thanglequoc/vietnamese-provinces-database","geometry_source_commit":"84927db9757e2fbf9318a1a70aa8e1afb245de88","geometry_license":"MIT","simplification_tolerance_degrees":4e-05,"disclaimer":"Dữ liệu tham khảo học thuật, không thay thế bản đồ địa giới pháp lý.","adjacency":{"Hiệp Bình":["Linh Xuân","Tam Bình","Thủ Đức"],"Tam Bình":["Hiệp Bình","Linh Xuân"],"Thủ Đức":["An Khánh","Hiệp Bình","Linh Xuân","Phước Long","Tăng Nhơn Phú"],"Linh Xuân":["Hiệp Bình","Long Bình","Tam Bình","Thủ Đức","Tăng Nhơn Phú"],"Long Bình":["Linh Xuân","Long Phước","Tăng Nhơn Phú"],"Tăng Nhơn Phú":["Linh Xuân","Long Bình","Long Phước","Long Trường","Phước Long","Thủ Đức"],"Phước Long":["Bình Trưng","Long Trường","Thủ Đức","Tăng Nhơn Phú"],"Long Phước":["Long Bình","Long Trường","Tăng Nhơn Phú"],"Long Trường":["Bình Trưng","Cát Lái","Long Phước","Phước Long","Tăng Nhơn Phú"],"An Khánh":["Bình Trưng","Thủ Đức"],"Bình Trưng":["An Khánh","Cát Lái","Long Trường","Phước Long"],"Cát Lái":["Bình Trưng","Long Trường"]}},"features":[{"geometry":{"type":"Polygon","coordinates":[[[106.726229,10.865764],[106.726537,10.864759],[106.726316,10.864657],[106.726806,10.863457],[106.726803,10.862796],[106.726922,10.862311],[106.726928,10.861608],[106.727003,10.861499],[106.727154,10.861447],[106.728275,10.86135],[106.72875,10.861116],[106.729253,10.860973],[106.729429,10.860848],[106.729636,10.860435],[106.729616,10.859342],[106.729784,10.858554],[106.72987,10.858366],[106.730237,10.858189],[106.730617,10.857831],[106.731104,10.855576],[106.731672,10.855181],[106.731947,10.855114],[106.732313,10.855179],[106.732602,10.855329],[106.733271,10.855432],[106.734187,10.855376],[106.734472,10.8552],[106.734765,10.854741],[106.734981,10.854202],[106.735056,10.85364],[106.734791,10.852589],[106.734531,10.851986],[106.734319,10.850821],[106.734221,10.849631],[106.734391,10.849157],[106.734669,10.848772],[106.735136,10.848395],[106.736841,10.847653],[106.737216,10.84756],[106.737908,10.847125],[106.738927,10.846062],[106.739266,10.84543],[106.739311,10.845146],[106.7397,10.845329],[106.740086,10.845694],[106.740194,10.846474],[106.740855,10.846625],[106.740993,10.846753],[106.741027,10.847898],[106.740694,10.848689],[106.74057,10.8492],[106.740601,10.849501],[106.74118,10.851168],[106.741547,10.851749],[106.741802,10.852319],[106.741825,10.852632],[106.74166,10.853303],[106.741699,10.853408],[106.742075,10.853725],[106.742322,10.854514],[106.742475,10.855734],[106.74238,10.85602],[106.742174,10.85624],[106.742299,10.858063],[106.742264,10.858184],[106.742659,10.858545],[106.743146,10.859231],[106.74347,10.859976],[106.743705,10.859885],[106.744652,10.860123],[106.745809,10.860059],[106.746407,10.860159],[106.746909,10.859674],[106.7481,10.859703],[106.748634,10.858824],[106.749643,10.859174],[106.750379,10.859324],[106.751117,10.859372],[106.751271,10.859271],[106.751505,10.858974],[106.75166,10.858897],[106.751844,10.855012],[106.751758,10.854454],[106.751145,10.853167],[106.748264,10.84847],[106.745181,10.842687],[106.744095,10.841484],[106.742886,10.840806],[106.740448,10.840134],[106.738889,10.839797],[106.739923,10.83557],[106.739336,10.835509],[106.738925,10.835323],[106.737742,10.834494],[106.736688,10.833301],[106.736021,10.83241],[106.734605,10.829929],[106.733021,10.827482],[106.731739,10.826031],[106.729662,10.824148],[106.729372,10.823919],[106.727818,10.823049],[106.725657,10.82203],[106.724621,10.821627],[106.721491,10.820673],[106.719804,10.820406],[106.718308,10.820386],[106.715633,10.820636],[106.714623,10.820805],[106.714318,10.820743],[106.713803,10.820801],[106.713661,10.820971],[106.713224,10.821163],[106.712847,10.821523],[106.711302,10.822479],[106.710112,10.823511],[106.709767,10.823958],[106.70971,10.824322],[106.709191,10.82536],[106.709119,10.825854],[106.709008,10.826068],[106.708873,10.826618],[106.708633,10.83054],[106.708642,10.831506],[106.708431,10.833014],[106.708052,10.834159],[106.707588,10.835141],[106.707212,10.835766],[106.70627,10.83679],[106.704965,10.83785],[106.703875,10.838576],[106.702428,10.839302],[106.700618,10.840351],[106.700303,10.840591],[106.698765,10.842254],[106.69828,10.842982],[106.697856,10.844347],[106.697785,10.845492],[106.697879,10.846797],[106.698244,10.848505],[106.698765,10.849584],[106.69929,10.85027],[106.699957,10.850672],[106.701235,10.851119],[106.7031,10.851414],[106.704353,10.851692],[106.704994,10.851728],[106.706824,10.851631],[106.707807,10.851441],[106.710855,10.851061],[106.713567,10.851364],[106.714111,10.851578],[106.714598,10.851924],[106.715573,10.852399],[106.71563,10.852539],[106.716874,10.85383],[106.717456,10.854617],[106.717939,10.855406],[106.718116,10.855977],[106.718214,10.857255],[106.71815,10.857871],[106.717614,10.859966],[106.717243,10.86116],[106.716943,10.861932],[106.715666,10.863798],[106.714903,10.864552],[106.713282,10.865677],[106.714156,10.866898],[106.714529,10.867319],[106.715115,10.867821],[106.71553,10.868415],[106.715538,10.868836],[106.715255,10.869475],[106.715208,10.869754],[106.715164,10.870427],[106.715207,10.870838],[106.714991,10.872396],[106.714917,10.872503],[106.71569,10.872835],[106.716279,10.872851],[106.717938,10.872419],[106.718761,10.872453],[106.719948,10.87233],[106.721431,10.871672],[106.723512,10.871741],[106.724598,10.871431],[106.725134,10.870638],[106.725763,10.870168],[106.725868,10.869782],[106.725996,10.869612],[106.726294,10.869419],[106.726468,10.869463],[106.726867,10.8694],[106.726975,10.869315],[106.727055,10.869113],[106.727109,10.868769],[106.726779,10.868454],[106.7268,10.868086],[106.726706,10.867663],[106.726766,10.867114],[106.72667,10.866622],[106.7265,10.866263],[106.726532,10.865964],[106.726444,10.865845],[106.726229,10.865764]]]},"properties":{"name":"Hiệp Bình","full_name":"Phường Hiệp Bình","area_km2":"16.01","population":"215638","former_units":"Phường Hiệp Bình Chánh, Phường Hiệp Bình Phước, Phường Linh Đông","source_id":"xa2754"},"type":"Feature"},{"geometry":{"type":"Polygon","coordinates":[[[106.743685,10.880805],[106.744837,10.879289],[106.745503,10.878196],[106.746223,10.877215],[106.74673,10.876595],[106.748442,10.875111],[106.748663,10.874605],[106.745071,10.87344],[106.746111,10.871473],[106.747285,10.869538],[106.74739,10.86941],[106.747889,10.869279],[106.747887,10.868205],[106.748169,10.868133],[106.74887,10.868454],[106.74928,10.867518],[106.749159,10.867462],[106.749789,10.866058],[106.750239,10.86616],[106.750626,10.865631],[106.751705,10.866372],[106.751829,10.866075],[106.751915,10.866085],[106.751889,10.864719],[106.751756,10.863508],[106.75166,10.858897],[106.751505,10.858974],[106.751362,10.859181],[106.751117,10.859372],[106.750835,10.859377],[106.749643,10.859174],[106.748634,10.858824],[106.7481,10.859703],[106.746909,10.859674],[106.746407,10.860159],[106.745809,10.860059],[106.744652,10.860123],[106.743705,10.859885],[106.74347,10.859976],[106.743146,10.859231],[106.742659,10.858545],[106.742264,10.858184],[106.742299,10.858063],[106.742174,10.85624],[106.74238,10.85602],[106.742475,10.855734],[106.742322,10.854514],[106.742075,10.853725],[106.741699,10.853408],[106.74166,10.853303],[106.741825,10.852632],[106.741802,10.852319],[106.741547,10.851749],[106.74118,10.851168],[106.740601,10.849501],[106.74057,10.8492],[106.740694,10.848689],[106.741027,10.847898],[106.740993,10.846753],[106.740855,10.846625],[106.740194,10.846474],[106.740086,10.845694],[106.7397,10.845329],[106.739311,10.845146],[106.739266,10.84543],[106.738927,10.846062],[106.737908,10.847125],[106.737216,10.84756],[106.736841,10.847653],[106.735136,10.848395],[106.734645,10.848797],[106.734357,10.849216],[106.734221,10.84971],[106.734424,10.851508],[106.734549,10.852045],[106.734791,10.852589],[106.735056,10.85364],[106.734945,10.854323],[106.734497,10.855172],[106.734187,10.855376],[106.733377,10.855442],[106.732602,10.855329],[106.732313,10.855179],[106.731922,10.855116],[106.731708,10.855162],[106.731187,10.85549],[106.731098,10.855585],[106.731003,10.855911],[106.730617,10.857831],[106.730237,10.858189],[106.72987,10.858366],[106.729784,10.858554],[106.729616,10.859342],[106.729636,10.860435],[106.729429,10.860848],[106.729253,10.860973],[106.72875,10.861116],[106.728275,10.86135],[106.727154,10.861447],[106.72694,10.861584],[106.726922,10.862311],[106.726803,10.862796],[106.726806,10.863457],[106.726316,10.864657],[106.726537,10.864759],[106.726229,10.865764],[106.726444,10.865845],[106.726532,10.865964],[106.7265,10.866263],[106.72667,10.866622],[106.726742,10.866949],[106.726706,10.867663],[106.7268,10.868086],[106.726779,10.868454],[106.727118,10.868816],[106.726975,10.869315],[106.726729,10.86944],[106.726253,10.86943],[106.725996,10.869612],[106.725868,10.869782],[106.725763,10.870168],[106.725134,10.870638],[106.724627,10.871412],[106.723452,10.871744],[106.72356,10.872245],[106.723494,10.872701],[106.723407,10.872822],[106.72278,10.87321],[106.722096,10.874216],[106.721642,10.875068],[106.721623,10.875588],[106.721338,10.87615],[106.721395,10.876395],[106.719982,10.876618],[106.719238,10.876833],[106.718265,10.876829],[106.717502,10.877158],[106.716413,10.877135],[106.716111,10.877251],[106.715178,10.87977],[106.717975,10.880811],[106.717002,10.882565],[106.716781,10.88335],[106.716575,10.884714],[106.716813,10.885377],[106.717021,10.885563],[106.717116,10.885992],[106.717386,10.886422],[106.717404,10.887313],[106.717538,10.887768],[106.71737,10.887921],[106.716938,10.887988],[106.716435,10.887817],[106.715589,10.887722],[106.715218,10.887336],[106.71447,10.886781],[106.713985,10.887157],[106.713838,10.887513],[106.714446,10.888018],[106.714477,10.888144],[106.714142,10.888417],[106.713655,10.888625],[106.713379,10.888879],[106.713237,10.8892],[106.71306,10.889422],[106.713117,10.889887],[106.715482,10.892913],[106.717604,10.896423],[106.720475,10.894374],[106.725803,10.891033],[106.72745,10.890207],[106.727839,10.889888],[106.728169,10.889402],[106.728735,10.88835],[106.728779,10.888058],[106.728739,10.887466],[106.731506,10.887114],[106.731283,10.886653],[106.731039,10.885883],[106.732408,10.885654],[106.736692,10.884583],[106.735154,10.881926],[106.734186,10.880517],[106.735093,10.880244],[106.735439,10.880245],[106.735608,10.87999],[106.736082,10.87958],[106.736413,10.880184],[106.737004,10.879845],[106.737242,10.880267],[106.738209,10.879657],[106.738407,10.879425],[106.738936,10.879944],[106.739645,10.881029],[106.740261,10.880697],[106.741193,10.881334],[106.742355,10.880636],[106.743147,10.880249],[106.743509,10.880811],[106.743685,10.880805]]]},"properties":{"name":"Tam Bình","full_name":"Phường Tam Bình","area_km2":"10.71","population":"153414","former_units":"Phường Bình Chiểu, Phường Tam Phú, Phường Tam Bình","source_id":"xa2803"},"type":"Feature"},{"geometry":{"type":"Polygon","coordinates":[[[106.748264,10.84847],[106.750065,10.851406],[106.750444,10.851212],[106.750644,10.851185],[106.750861,10.850867],[106.751158,10.850663],[106.750838,10.850108],[106.750852,10.850022],[106.751142,10.849826],[106.751235,10.849564],[106.750896,10.849137],[106.750958,10.848971],[106.751171,10.848975],[106.751714,10.849519],[106.751895,10.849549],[106.752335,10.849098],[106.752603,10.848919],[106.752861,10.848879],[106.753084,10.848673],[106.753689,10.849412],[106.753542,10.84954],[106.754903,10.851283],[106.754626,10.852684],[106.754656,10.853249],[106.754799,10.853827],[106.755356,10.855087],[106.75574,10.855385],[106.756848,10.856626],[106.757129,10.857306],[106.757342,10.857624],[106.758454,10.858112],[106.758976,10.858576],[106.759552,10.859268],[106.760379,10.860075],[106.760772,10.860588],[106.760933,10.860978],[106.761651,10.8605],[106.76196,10.85988],[106.763659,10.857631],[106.764117,10.857131],[106.765008,10.856772],[106.766136,10.856459],[106.76655,10.855882],[106.767083,10.855423],[106.767988,10.854872],[106.768977,10.854357],[106.769917,10.85412],[106.771566,10.853972],[106.77174,10.853969],[106.772935,10.854497],[106.772978,10.854202],[106.773291,10.853551],[106.774377,10.851753],[106.77427,10.851267],[106.773757,10.850195],[106.773267,10.849546],[106.773397,10.849537],[106.774015,10.849109],[106.773168,10.84803],[106.772217,10.846453],[106.771772,10.845826],[106.766165,10.835861],[106.76368,10.831568],[106.762969,10.830213],[106.759487,10.82413],[106.759249,10.823617],[106.758874,10.822602],[106.758268,10.820089],[106.756976,10.813189],[106.756067,10.813215],[106.755551,10.813327],[106.754985,10.813202],[106.752346,10.813077],[106.751781,10.81296],[106.751162,10.812976],[106.7515,10.815464],[106.75152,10.827177],[106.751382,10.828464],[106.750516,10.830235],[106.749498,10.831855],[106.748081,10.833042],[106.747533,10.833421],[106.746823,10.833769],[106.746547,10.833775],[106.746198,10.833986],[106.744969,10.834329],[106.744716,10.834566],[106.743232,10.834945],[106.741809,10.835401],[106.740873,10.835598],[106.739923,10.83557],[106.738889,10.839797],[106.740448,10.840134],[106.742886,10.840806],[106.744095,10.841484],[106.745181,10.842687],[106.748264,10.84847]]]},"properties":{"name":"Thủ Đức","full_name":"Phường Thủ Đức","area_km2":"8.81","population":"118952","former_units":"Phường Bình Thọ, Phường Linh Chiểu, Phường Trường Thọ, Phường Linh Tây, Phường Linh Đông","source_id":"xa2840"},"type":"Feature"},{"geometry":{"type":"Polygon","coordinates":[[[106.751783,10.863869],[106.751889,10.864719],[106.751915,10.866085],[106.75228,10.866258],[106.752362,10.866205],[106.75289,10.86638],[106.753189,10.866431],[106.753378,10.866392],[106.754472,10.866823],[106.754706,10.866346],[106.754931,10.866421],[106.755735,10.866392],[106.756098,10.866429],[106.756511,10.866585],[106.757542,10.867091],[106.757699,10.867039],[106.758223,10.867151],[106.759569,10.866895],[106.760072,10.86696],[106.760714,10.867194],[106.761394,10.867287],[106.762337,10.867275],[106.762982,10.868322],[106.763319,10.869079],[106.763407,10.869876],[106.762915,10.870123],[106.762576,10.870455],[106.762281,10.87088],[106.762195,10.871117],[106.760388,10.872384],[106.761371,10.873633],[106.761748,10.874389],[106.761318,10.874525],[106.761331,10.874868],[106.761831,10.875455],[106.761807,10.875723],[106.761869,10.875732],[106.761403,10.878514],[106.761973,10.878719],[106.761465,10.879718],[106.760526,10.881257],[106.761159,10.882003],[106.761722,10.882411],[106.76182,10.882554],[106.763605,10.883824],[106.763779,10.883816],[106.764135,10.884904],[106.764544,10.884877],[106.764649,10.886279],[106.765108,10.886827],[106.765237,10.887511],[106.765341,10.887749],[106.765827,10.888296],[106.765902,10.888478],[106.766015,10.888445],[106.766163,10.888839],[106.766478,10.890393],[106.76687,10.891536],[106.76768,10.891669],[106.767256,10.892574],[106.768413,10.892333],[106.768413,10.893601],[106.768878,10.893717],[106.769315,10.893698],[106.769548,10.893853],[106.770067,10.892965],[106.770826,10.892297],[106.770995,10.891952],[106.771086,10.891412],[106.771249,10.891157],[106.772148,10.890458],[106.772323,10.890119],[106.7726,10.889897],[106.772769,10.88957],[106.773412,10.888957],[106.773925,10.888541],[106.774119,10.888304],[106.774461,10.888148],[106.77507,10.887531],[106.775558,10.88714],[106.775779,10.886522],[106.776204,10.885967],[106.776254,10.885751],[106.776721,10.885006],[106.77718,10.884752],[106.778189,10.883622],[106.778924,10.883056],[106.779982,10.88189],[106.780536,10.881456],[106.78075,10.880821],[106.781055,10.880195],[106.781177,10.879707],[106.781294,10.87952],[106.781216,10.878078],[106.781317,10.877962],[106.781708,10.877781],[106.781913,10.877521],[106.782033,10.876837],[106.781851,10.874759],[106.781907,10.874291],[106.781868,10.873984],[106.781663,10.8736],[106.781553,10.873163],[106.781119,10.872263],[106.780919,10.872154],[106.781013,10.871808],[106.780959,10.871756],[106.780713,10.87175],[106.780718,10.871429],[106.780619,10.870978],[106.780432,10.870728],[106.780537,10.870424],[106.780191,10.869259],[106.780209,10.868982],[106.779964,10.868404],[106.782147,10.86768],[106.783177,10.867454],[106.784212,10.867348],[106.788854,10.867163],[106.788131,10.867569],[106.787851,10.867786],[106.787773,10.867972],[106.787954,10.870063],[106.788214,10.870775],[106.788933,10.871949],[106.792145,10.871974],[106.792182,10.872497],[106.792867,10.87261],[106.792879,10.872495],[106.793725,10.872506],[106.793744,10.872671],[106.793856,10.872823],[106.794569,10.873372],[106.79491,10.873535],[106.795879,10.873533],[106.796059,10.873217],[106.797491,10.87322],[106.797774,10.873109],[106.797715,10.872722],[106.797779,10.872493],[106.797948,10.872249],[106.798185,10.871977],[106.798684,10.872051],[106.798907,10.872117],[106.7995,10.872458],[106.801307,10.873576],[106.801727,10.873652],[106.80267,10.873511],[106.803474,10.87353],[106.804437,10.873734],[106.804796,10.873985],[106.805064,10.874371],[106.805168,10.874557],[106.805296,10.875117],[106.80759,10.873985],[106.808589,10.873037],[106.807036,10.870885],[106.805885,10.869483],[106.805017,10.868558],[106.80358,10.867335],[106.776851,10.851488],[106.775902,10.85083],[106.774727,10.849815],[106.774015,10.849109],[106.773397,10.849537],[106.773267,10.849546],[106.773757,10.850195],[106.77427,10.851267],[106.774377,10.851753],[106.773291,10.853551],[106.772978,10.854202],[106.772935,10.854497],[106.77174,10.853969],[106.771566,10.853972],[106.769917,10.85412],[106.768977,10.854357],[106.767988,10.854872],[106.767083,10.855423],[106.76655,10.855882],[106.766136,10.856459],[106.765008,10.856772],[106.764117,10.857131],[106.763659,10.857631],[106.76196,10.85988],[106.761651,10.8605],[106.760933,10.860978],[106.760772,10.860588],[106.760379,10.860075],[106.759552,10.859268],[106.758976,10.858576],[106.758454,10.858112],[106.757342,10.857624],[106.757129,10.857306],[106.756848,10.856626],[106.75574,10.855385],[106.755356,10.855087],[106.754799,10.853827],[106.754656,10.853249],[106.754626,10.852684],[106.754903,10.851283],[106.753542,10.84954],[106.753689,10.849412],[106.753084,10.848673],[106.752861,10.848879],[106.752603,10.848919],[106.752335,10.849098],[106.751895,10.849549],[106.751714,10.849519],[106.751171,10.848975],[106.750958,10.848971],[106.750896,10.849137],[106.751235,10.849564],[106.751142,10.849826],[106.750852,10.850022],[106.750838,10.850108],[106.751158,10.850663],[106.750861,10.850867],[106.750644,10.851185],[106.750444,10.851212],[106.750065,10.851406],[106.751145,10.853167],[106.751758,10.854454],[106.751844,10.855012],[106.75166,10.858897],[106.751783,10.863869]]]},"properties":{"name":"Linh Xuân","full_name":"Phường Linh Xuân","area_km2":"12.29","population":"158334","former_units":"Phường Linh Trung, Phường Linh Xuân, Phường Linh Tây","source_id":"xa2767"},"type":"Feature"},{"geometry":{"type":"Polygon","coordinates":[[[106.807619,10.871707],[106.819954,10.888544],[106.823676,10.893715],[106.825947,10.896286],[106.827645,10.897289],[106.834325,10.899833],[106.839431,10.901601],[106.840736,10.897148],[106.842402,10.892474],[106.843678,10.884398],[106.844097,10.883476],[106.847872,10.880373],[106.851048,10.876279],[106.851213,10.875875],[106.851208,10.875052],[106.850746,10.873079],[106.849162,10.869801],[106.84844,10.868468],[106.846791,10.865798],[106.84669,10.865543],[106.846679,10.8651],[106.846786,10.864422],[106.847588,10.861604],[106.848583,10.858709],[106.849175,10.857368],[106.850145,10.855874],[106.851228,10.853973],[106.852519,10.850702],[106.855948,10.843452],[106.856899,10.842091],[106.857459,10.84151],[106.855948,10.840812],[106.855097,10.840303],[106.854804,10.839822],[106.854432,10.838504],[106.853795,10.837063],[106.853159,10.836059],[106.852075,10.835289],[106.849109,10.834347],[106.848535,10.833996],[106.847191,10.832726],[106.84656,10.831981],[106.845922,10.831466],[106.845228,10.831073],[106.844588,10.830812],[106.843985,10.830686],[106.843136,10.830749],[106.8426,10.830989],[106.840213,10.832385],[106.839157,10.832693],[106.838489,10.83269],[106.837471,10.832229],[106.837078,10.831763],[106.83674,10.831075],[106.836312,10.82898],[106.835756,10.826759],[106.834483,10.827185],[106.833796,10.827185],[106.832759,10.826941],[106.832095,10.826899],[106.831244,10.827039],[106.829946,10.82739],[106.829372,10.827444],[106.828973,10.827354],[106.827399,10.82637],[106.826064,10.825961],[106.822775,10.833978],[106.821389,10.836761],[106.820288,10.838729],[106.818408,10.839936],[106.817416,10.839995],[106.816741,10.8401],[106.816472,10.840234],[106.81696,10.841309],[106.808685,10.848992],[106.813699,10.850179],[106.813484,10.859566],[106.813574,10.865502],[106.813692,10.866102],[106.813775,10.867927],[106.814033,10.870082],[106.812628,10.87058],[106.811386,10.870927],[106.808902,10.871496],[106.807619,10.871707]]]},"properties":{"name":"Long Bình","full_name":"Phường Long Bình","area_km2":"34.29","population":"53092","former_units":"Phường Long Bình, Phường Long Thạnh Mỹ","source_id":"xa2768"},"type":"Feature"},{"geometry":{"type":"Polygon","coordinates":[[[106.813484,10.859566],[106.813699,10.850179],[106.808685,10.848992],[106.81696,10.841309],[106.816472,10.840234],[106.816741,10.8401],[106.817416,10.839995],[106.818408,10.839936],[106.820288,10.838729],[106.821389,10.836761],[106.822775,10.833978],[106.826064,10.825961],[106.824938,10.825618],[106.824353,10.825798],[106.823597,10.826374],[106.822948,10.82725],[106.82267,10.827517],[106.820978,10.82862],[106.820458,10.828868],[106.819993,10.829005],[106.818211,10.829245],[106.817586,10.829395],[106.817093,10.829662],[106.815946,10.830528],[106.815576,10.830724],[106.813898,10.830702],[106.812557,10.830482],[106.811674,10.83026],[106.81096,10.829879],[106.810139,10.828962],[106.808963,10.828175],[106.80812,10.827746],[106.807171,10.827491],[106.806755,10.827309],[106.806195,10.826899],[106.805285,10.825876],[106.804268,10.82537],[106.804243,10.824826],[106.80411,10.824479],[106.80395,10.824211],[106.803238,10.823495],[106.802996,10.823086],[106.802916,10.822522],[106.803075,10.821128],[106.802878,10.820607],[106.802254,10.82088],[106.801855,10.820968],[106.800479,10.820948],[106.799625,10.821157],[106.799026,10.82108],[106.798851,10.820964],[106.798428,10.820308],[106.797923,10.819902],[106.79729,10.819562],[106.796802,10.819467],[106.796272,10.819242],[106.79443,10.818232],[106.793916,10.817758],[106.793349,10.817042],[106.792729,10.816511],[106.791463,10.815953],[106.789949,10.814988],[106.789252,10.814816],[106.787432,10.814672],[106.787794,10.815274],[106.788352,10.815956],[106.788487,10.816527],[106.788221,10.818354],[106.788059,10.818594],[106.787535,10.818995],[106.787345,10.819238],[106.787406,10.819493],[106.787911,10.819848],[106.787998,10.82015],[106.787894,10.820771],[106.787364,10.821568],[106.786606,10.822415],[106.785666,10.822815],[106.785573,10.822916],[106.785547,10.823072],[106.784739,10.823565],[106.783831,10.824296],[106.7837,10.824548],[106.783857,10.824995],[106.783737,10.825235],[106.781297,10.827274],[106.781683,10.827707],[106.779514,10.829387],[106.777302,10.83093],[106.776524,10.831763],[106.774426,10.833467],[106.773926,10.834006],[106.77375,10.834054],[106.773728,10.834371],[106.773063,10.834441],[106.772868,10.834639],[106.772401,10.834854],[106.771065,10.835112],[106.771176,10.83547],[106.771294,10.838582],[106.771265,10.83942],[106.770704,10.838913],[106.770356,10.839175],[106.770818,10.839777],[106.770671,10.839989],[106.769057,10.841045],[106.771772,10.845826],[106.772217,10.846453],[106.773168,10.84803],[106.773849,10.848936],[106.774727,10.849815],[106.775902,10.85083],[106.776851,10.851488],[106.780639,10.853758],[106.80358,10.867335],[106.805017,10.868558],[106.805885,10.869483],[106.807036,10.870885],[106.807619,10.871707],[106.808902,10.871496],[106.811386,10.870927],[106.812628,10.87058],[106.814033,10.870082],[106.813775,10.867927],[106.813692,10.866102],[106.813574,10.865502],[106.813484,10.859566]]]},"properties":{"name":"Tăng Nhơn Phú","full_name":"Phường Tăng Nhơn Phú","area_km2":"16.51","population":"208233","former_units":"Phường Tân Phú (thành phố Thủ Đức), Phường Hiệp Phú, Phường Tăng Nhơn Phú A, Phường Tăng Nhơn Phú B, Phường Long Thạnh Mỹ","source_id":"xa2829"},"type":"Feature"},{"geometry":{"type":"Polygon","coordinates":[[[106.770356,10.839175],[106.770704,10.838913],[106.771265,10.83942],[106.771294,10.838582],[106.771176,10.83547],[106.771065,10.835112],[106.772401,10.834854],[106.772868,10.834639],[106.773063,10.834441],[106.773728,10.834371],[106.77375,10.834054],[106.773926,10.834006],[106.774426,10.833467],[106.776524,10.831763],[106.777302,10.83093],[106.779514,10.829387],[106.781683,10.827707],[106.781297,10.827274],[106.783737,10.825235],[106.783857,10.824995],[106.7837,10.824548],[106.783831,10.824296],[106.784739,10.823565],[106.785547,10.823072],[106.785573,10.822916],[106.785666,10.822815],[106.786606,10.822415],[106.787624,10.82123],[106.787959,10.820584],[106.787983,10.819995],[106.787875,10.819798],[106.787406,10.819493],[106.787345,10.819238],[106.787535,10.818995],[106.788059,10.818594],[106.788221,10.818354],[106.788487,10.816527],[106.788352,10.815956],[106.787794,10.815274],[106.787432,10.814672],[106.789252,10.814816],[106.78988,10.814966],[106.790256,10.813439],[106.791069,10.81204],[106.791852,10.81044],[106.79238,10.809752],[106.793434,10.807894],[106.793433,10.807583],[106.793223,10.806564],[106.793287,10.805284],[106.792259,10.805123],[106.791367,10.80507],[106.789811,10.80469],[106.789388,10.804317],[106.789288,10.80367],[106.788908,10.802144],[106.78868,10.801607],[106.788483,10.801357],[106.787208,10.800589],[106.786895,10.800476],[106.78659,10.800478],[106.785967,10.800639],[106.785068,10.800745],[106.784814,10.800718],[106.78295,10.799781],[106.782665,10.799562],[106.781925,10.798653],[106.782148,10.797834],[106.782174,10.797439],[106.781915,10.795444],[106.781593,10.794718],[106.781453,10.79453],[106.781129,10.794414],[106.776969,10.808624],[106.776775,10.808993],[106.775857,10.808328],[106.774891,10.807774],[106.773671,10.807674],[106.773116,10.807558],[106.772443,10.807598],[106.770954,10.808289],[106.770411,10.808407],[106.769126,10.808442],[106.767974,10.808228],[106.7671,10.808225],[106.766441,10.808461],[106.765551,10.808943],[106.764674,10.809837],[106.764179,10.810912],[106.764151,10.811822],[106.763981,10.812868],[106.763842,10.813225],[106.762952,10.814087],[106.762348,10.814462],[106.761497,10.814598],[106.7607,10.814473],[106.759256,10.813757],[106.757507,10.813228],[106.756976,10.813189],[106.75791,10.818306],[106.758571,10.821474],[106.758874,10.822602],[106.759487,10.82413],[106.769057,10.841045],[106.770671,10.839989],[106.770818,10.839777],[106.770356,10.839175]]]},"properties":{"name":"Phước Long","full_name":"Phường Phước Long","area_km2":"9.23","population":"137331","former_units":"Phường Phước Bình, Phường Phước Long A, Phường Phước Long B","source_id":"xa2798"},"type":"Feature"},{"geometry":{"type":"Polygon","coordinates":[[[106.863878,10.834877],[106.871526,10.82591],[106.877515,10.819626],[106.879057,10.817388],[106.880866,10.814218],[106.881435,10.813088],[106.881686,10.812467],[106.882003,10.810701],[106.882043,10.810084],[106.881949,10.807652],[106.881566,10.805973],[106.881093,10.804778],[106.880437,10.803594],[106.879576,10.802309],[106.878207,10.800671],[106.87678,10.79966],[106.870239,10.79424],[106.866261,10.790403],[106.865798,10.78988],[106.865577,10.789403],[106.865307,10.788663],[106.865157,10.787898],[106.865104,10.787157],[106.86517,10.786176],[106.865311,10.78541],[106.865501,10.784811],[106.867097,10.782332],[106.868009,10.781331],[106.869668,10.779703],[106.870737,10.778124],[106.871329,10.776846],[106.871589,10.775709],[106.871584,10.772775],[106.871505,10.769994],[106.871255,10.768704],[106.870936,10.76794],[106.870326,10.767083],[106.869159,10.766062],[106.867509,10.76521],[106.866321,10.764835],[106.865159,10.764746],[106.86385,10.764905],[106.862734,10.765386],[106.862185,10.765776],[106.86141,10.766483],[106.860571,10.767459],[106.859977,10.768334],[106.859131,10.769812],[106.858437,10.770694],[106.857946,10.771154],[106.855386,10.773179],[106.854776,10.773582],[106.854067,10.773939],[106.852822,10.774365],[106.85206,10.774545],[106.849817,10.774926],[106.848011,10.775044],[106.846438,10.774997],[106.844717,10.774681],[106.844034,10.774452],[106.843068,10.774053],[106.841171,10.77304],[106.839059,10.775682],[106.837402,10.777121],[106.836132,10.777795],[106.83473,10.778664],[106.833612,10.779912],[106.833275,10.780546],[106.833118,10.780999],[106.833057,10.781709],[106.833349,10.782935],[106.833648,10.783498],[106.833997,10.783936],[106.834376,10.784269],[106.835191,10.784649],[106.835572,10.784718],[106.836461,10.784719],[106.837605,10.784277],[106.83972,10.782824],[106.841623,10.781365],[106.842292,10.780908],[106.842992,10.780588],[106.843359,10.780491],[106.84364,10.780499],[106.844041,10.780539],[106.844439,10.780723],[106.844955,10.781213],[106.845293,10.781963],[106.844012,10.7823],[106.843533,10.782708],[106.840974,10.789718],[106.838505,10.792208],[106.838017,10.792865],[106.837829,10.792938],[106.837377,10.793411],[106.838795,10.799595],[106.838533,10.801826],[106.838336,10.802376],[106.835945,10.806083],[106.835766,10.806259],[106.834496,10.807003],[106.833294,10.807594],[106.832799,10.807806],[106.832046,10.807986],[106.831211,10.807927],[106.825683,10.807118],[106.823832,10.806626],[106.821787,10.806204],[106.817546,10.805627],[106.817166,10.80548],[106.816449,10.807443],[106.813424,10.813918],[106.812474,10.815266],[106.810651,10.817154],[106.810409,10.817505],[106.807985,10.824377],[106.807357,10.825772],[106.806399,10.827064],[106.806902,10.827388],[106.80812,10.827746],[106.808963,10.828175],[106.810139,10.828962],[106.810908,10.829835],[106.811541,10.830214],[106.812557,10.830482],[106.813898,10.830702],[106.815495,10.830736],[106.815857,10.830589],[106.816991,10.829732],[106.817586,10.829395],[106.818211,10.829245],[106.819993,10.829005],[106.820458,10.828868],[106.820978,10.82862],[106.822749,10.82745],[106.823501,10.826476],[106.824085,10.825975],[106.824415,10.82577],[106.824938,10.825618],[106.827399,10.82637],[106.828973,10.827354],[106.829372,10.827444],[106.829946,10.82739],[106.831244,10.827039],[106.832095,10.826899],[106.832759,10.826941],[106.833796,10.827185],[106.834483,10.827185],[106.835756,10.826759],[106.836312,10.82898],[106.83674,10.831075],[106.837078,10.831763],[106.837471,10.832229],[106.838489,10.83269],[106.839157,10.832693],[106.840213,10.832385],[106.8426,10.830989],[106.843136,10.830749],[106.843985,10.830686],[106.844588,10.830812],[106.845228,10.831073],[106.84576,10.831336],[106.84656,10.831981],[106.847191,10.832726],[106.848535,10.833996],[106.849109,10.834347],[106.852075,10.835289],[106.853159,10.836059],[106.853795,10.837063],[106.854432,10.838504],[106.854804,10.839822],[106.855097,10.840303],[106.855948,10.840812],[106.857459,10.84151],[106.862208,10.836697],[106.863878,10.834877]]]},"properties":{"name":"Long Phước","full_name":"Phường Long Phước","area_km2":"108","population":"53387","former_units":"Phường Trường Thạnh, Phường Long Phước","source_id":"xa2774"},"type":"Feature"},{"geometry":{"type":"Polygon","coordinates":[[[106.807985,10.824377],[106.810409,10.817505],[106.810651,10.817154],[106.812474,10.815266],[106.813424,10.813918],[106.816449,10.807443],[106.817166,10.80548],[106.817546,10.805627],[106.821787,10.806204],[106.823832,10.806626],[106.825683,10.807118],[106.831691,10.807984],[106.832347,10.807926],[106.833294,10.807594],[106.835576,10.806392],[106.835945,10.806083],[106.838336,10.802376],[106.838533,10.801826],[106.838703,10.800428],[106.838795,10.799595],[106.837377,10.793411],[106.837829,10.792938],[106.838017,10.792865],[106.838505,10.792208],[106.840974,10.789718],[106.843533,10.782708],[106.844012,10.7823],[106.845293,10.781963],[106.844955,10.781213],[106.844439,10.780723],[106.844041,10.780539],[106.843359,10.780491],[106.842931,10.78061],[106.842292,10.780908],[106.838357,10.783765],[106.837605,10.784277],[106.836987,10.784558],[106.836183,10.784745],[106.835191,10.784649],[106.834376,10.784269],[106.833997,10.783936],[106.833648,10.783498],[106.833349,10.782935],[106.833057,10.781709],[106.833048,10.781394],[106.833275,10.780546],[106.833612,10.779912],[106.83473,10.778664],[106.836132,10.777795],[106.837402,10.777121],[106.839059,10.775682],[106.841171,10.77304],[106.837762,10.770873],[106.836229,10.769797],[106.835114,10.768723],[106.833347,10.766819],[106.83189,10.764995],[106.831255,10.763998],[106.829936,10.761579],[106.829634,10.761171],[106.828667,10.7603],[106.827759,10.759848],[106.826847,10.759633],[106.825906,10.759556],[106.825297,10.759596],[106.824418,10.759816],[106.823841,10.760251],[106.82349,10.760682],[106.823273,10.761012],[106.822975,10.761942],[106.822866,10.76274],[106.822903,10.763938],[106.823401,10.766226],[106.823997,10.767679],[106.825301,10.769812],[106.825688,10.771038],[106.826093,10.772794],[106.826219,10.774181],[106.826161,10.774796],[106.825824,10.776085],[106.825189,10.777693],[106.824698,10.778508],[106.824255,10.779101],[106.823598,10.779758],[106.822878,10.780229],[106.822074,10.780556],[106.821428,10.780718],[106.820214,10.780808],[106.819621,10.780743],[106.816784,10.780018],[106.815864,10.779481],[106.814281,10.778325],[106.8119,10.77637],[106.810012,10.774685],[106.80776,10.77564],[106.807239,10.775924],[106.806478,10.776048],[106.804282,10.776159],[106.803255,10.775312],[106.802557,10.774901],[106.802003,10.775415],[106.801612,10.775657],[106.800989,10.775874],[106.800419,10.775973],[106.799055,10.775981],[106.798726,10.77604],[106.798533,10.776201],[106.798324,10.776533],[106.79809,10.777762],[106.797935,10.778214],[106.797672,10.778535],[106.797404,10.778666],[106.796527,10.778822],[106.795805,10.778779],[106.79428,10.778544],[106.792983,10.778455],[106.791196,10.778435],[106.790148,10.778491],[106.789684,10.778589],[106.788864,10.778977],[106.78683,10.780251],[106.784475,10.781289],[106.784003,10.781626],[106.783765,10.782007],[106.78373,10.782232],[106.783899,10.78256],[106.784243,10.782951],[106.784914,10.783529],[106.786952,10.784622],[106.787143,10.784894],[106.787191,10.78564],[106.786755,10.790678],[106.781606,10.790407],[106.78166,10.792118],[106.781622,10.792599],[106.781129,10.794414],[106.781453,10.79453],[106.781593,10.794718],[106.781971,10.795667],[106.782174,10.797447],[106.782148,10.797834],[106.781925,10.798653],[106.782665,10.799562],[106.78295,10.799781],[106.784545,10.800612],[106.785068,10.800745],[106.785967,10.800639],[106.78659,10.800478],[106.786895,10.800476],[106.787208,10.800589],[106.788483,10.801357],[106.78868,10.801607],[106.788908,10.802144],[106.789288,10.80367],[106.789388,10.804317],[106.789811,10.80469],[106.791367,10.80507],[106.792259,10.805123],[106.793287,10.805284],[106.793223,10.806564],[106.793433,10.807583],[106.793434,10.807894],[106.79238,10.809752],[106.791852,10.81044],[106.791069,10.81204],[106.790256,10.813439],[106.78988,10.814966],[106.790326,10.815191],[106.791463,10.815953],[106.792821,10.816569],[106.793491,10.817195],[106.794145,10.818007],[106.794633,10.818369],[106.796272,10.819242],[106.796802,10.819467],[106.79729,10.819562],[106.798103,10.820018],[106.798464,10.820349],[106.798851,10.820964],[106.798974,10.821058],[106.799625,10.821157],[106.800479,10.820948],[106.801855,10.820968],[106.802254,10.82088],[106.802878,10.820607],[106.803075,10.821128],[106.802916,10.822522],[106.802955,10.822925],[106.803068,10.823238],[106.803323,10.823592],[106.80395,10.824211],[106.80411,10.824479],[106.804243,10.824826],[106.804268,10.82537],[106.805285,10.825876],[106.806399,10.827064],[106.807357,10.825772],[106.807985,10.824377]]]},"properties":{"name":"Long Trường","full_name":"Phường Long Trường","area_km2":"24.49","population":"73669","former_units":"Phường Phú Hữu, Phường Long Trường","source_id":"xa2776"},"type":"Feature"},{"geometry":{"type":"Polygon","coordinates":[[[106.748015,10.780847],[106.745666,10.779934],[106.745055,10.779472],[106.744624,10.778989],[106.744218,10.778364],[106.743393,10.776651],[106.742185,10.777242],[106.741552,10.777444],[106.741066,10.777543],[106.740193,10.777564],[106.73901,10.777337],[106.737565,10.77692],[106.73627,10.776109],[106.735949,10.775806],[106.735408,10.774592],[106.734812,10.771883],[106.734423,10.769207],[106.734127,10.76794],[106.734054,10.765425],[106.733723,10.76393],[106.733289,10.762869],[106.73273,10.762019],[106.731783,10.760803],[106.731315,10.76047],[106.730301,10.759961],[106.728831,10.759576],[106.726161,10.759216],[106.724057,10.75917],[106.722842,10.759298],[106.722069,10.75928],[106.721523,10.75938],[106.716851,10.761309],[106.714085,10.762698],[106.713126,10.763273],[106.711629,10.764487],[106.710852,10.765235],[106.710112,10.766082],[106.709212,10.767689],[106.708454,10.769486],[106.708187,10.770346],[106.708092,10.771516],[106.708161,10.773498],[106.708404,10.775565],[106.708572,10.776152],[106.708583,10.776889],[106.708727,10.777657],[106.709147,10.77892],[106.709774,10.780137],[106.71027,10.781561],[106.710827,10.782138],[106.71138,10.782973],[106.711538,10.783008],[106.712719,10.784039],[106.714139,10.785009],[106.716785,10.785565],[106.71737,10.78564],[106.717538,10.785594],[106.717902,10.785775],[106.719386,10.786165],[106.7205,10.786625],[106.722555,10.788094],[106.722771,10.788144],[106.723169,10.788068],[106.724103,10.789022],[106.72427,10.789362],[106.725624,10.791229],[106.726251,10.792256],[106.726517,10.792875],[106.726661,10.793287],[106.726735,10.793756],[106.726718,10.794561],[106.727032,10.795167],[106.727223,10.795857],[106.727458,10.79758],[106.727421,10.798332],[106.727323,10.798467],[106.727091,10.798532],[106.727076,10.798598],[106.72708,10.799479],[106.727145,10.79995],[106.7271,10.800215],[106.726692,10.800826],[106.726462,10.801426],[106.725561,10.802327],[106.725365,10.802687],[106.725297,10.803118],[106.724913,10.803663],[106.724751,10.803684],[106.723067,10.806262],[106.722917,10.806617],[106.722888,10.807239],[106.722703,10.807567],[106.722144,10.809911],[106.722489,10.811229],[106.722593,10.811871],[106.723106,10.813153],[106.723697,10.81434],[106.724024,10.81479],[106.724463,10.815145],[106.724512,10.815388],[106.724768,10.815804],[106.725988,10.817103],[106.726448,10.817493],[106.72767,10.81829],[106.729184,10.819115],[106.73037,10.819558],[106.731392,10.819755],[106.731716,10.819755],[106.732184,10.819645],[106.732895,10.819356],[106.734094,10.818541],[106.734658,10.817786],[106.735192,10.816774],[106.735583,10.815609],[106.735925,10.814138],[106.736306,10.813109],[106.737616,10.810869],[106.737928,10.810634],[106.738224,10.810512],[106.738389,10.810306],[106.738742,10.810052],[106.739977,10.809374],[106.740071,10.809223],[106.742271,10.808574],[106.743466,10.808391],[106.744955,10.80845],[106.746183,10.80869],[106.747478,10.809215],[106.748118,10.809615],[106.748358,10.809683],[106.749733,10.811013],[106.751162,10.812976],[106.751781,10.81296],[106.752346,10.813077],[106.754985,10.813202],[106.755551,10.813327],[106.756067,10.813215],[106.756977,10.813189],[106.756707,10.810502],[106.755707,10.808269],[106.754299,10.805809],[106.751238,10.803639],[106.750194,10.803423],[106.748675,10.802932],[106.736527,10.800686],[106.737337,10.79653],[106.737782,10.796611],[106.738651,10.795994],[106.737968,10.795669],[106.738445,10.795444],[106.737844,10.794813],[106.737725,10.793562],[106.736826,10.793747],[106.736633,10.7934],[106.736475,10.792902],[106.735962,10.792655],[106.735924,10.792228],[106.737481,10.789337],[106.751464,10.79231],[106.751109,10.79026],[106.750796,10.789436],[106.750431,10.788629],[106.749537,10.787521],[106.752551,10.784166],[106.751109,10.783287],[106.749871,10.782929],[106.749445,10.78264],[106.74858,10.781395],[106.748015,10.780847]]]},"properties":{"name":"An Khánh","full_name":"Phường An Khánh","area_km2":"15.33","population":"76967","former_units":"Phường Thủ Thiêm, Phường An Lợi Đông, Phường Thảo Điền, Phường An Khánh, Phường An Phú (thành phố Thủ Đức)","source_id":"xa2691"},"type":"Feature"},{"geometry":{"type":"Polygon","coordinates":[[[106.745194,10.775489],[106.743393,10.776651],[106.744218,10.778364],[106.744624,10.778989],[106.745055,10.779472],[106.745666,10.779934],[106.748033,10.780861],[106.74858,10.781395],[106.749445,10.78264],[106.749871,10.782929],[106.751109,10.783287],[106.752551,10.784166],[106.749537,10.787521],[106.750431,10.788629],[106.750796,10.789436],[106.751109,10.79026],[106.751464,10.79231],[106.737481,10.789337],[106.735924,10.792228],[106.735962,10.792655],[106.736475,10.792902],[106.736633,10.7934],[106.736826,10.793747],[106.737725,10.793562],[106.737844,10.794813],[106.738445,10.795444],[106.737968,10.795669],[106.738651,10.795994],[106.737782,10.796611],[106.737337,10.79653],[106.736527,10.800686],[106.748675,10.802932],[106.750194,10.803423],[106.751238,10.803639],[106.754299,10.805809],[106.755707,10.808269],[106.756707,10.810502],[106.756977,10.813189],[106.757507,10.813228],[106.759256,10.813757],[106.760572,10.814436],[106.760891,10.814516],[106.761727,10.814595],[106.762348,10.814462],[106.762851,10.814167],[106.763643,10.813456],[106.763842,10.813225],[106.763981,10.812868],[106.764151,10.811822],[106.764179,10.810912],[106.764674,10.809837],[106.765551,10.808943],[106.766788,10.808312],[106.767411,10.80819],[106.767974,10.808228],[106.769126,10.808442],[106.770411,10.808407],[106.770954,10.808289],[106.772443,10.807598],[106.773116,10.807558],[106.773671,10.807674],[106.774891,10.807774],[106.775857,10.808328],[106.776775,10.808993],[106.776969,10.808624],[106.781622,10.792599],[106.78166,10.792118],[106.781606,10.790407],[106.786755,10.790678],[106.787191,10.78564],[106.787143,10.784894],[106.786952,10.784622],[106.784914,10.783529],[106.784243,10.782951],[106.783899,10.78256],[106.78373,10.782232],[106.783765,10.782007],[106.784003,10.781626],[106.784475,10.781289],[106.78683,10.780251],[106.788864,10.778977],[106.789684,10.778589],[106.789909,10.778542],[106.789695,10.777914],[106.789639,10.776338],[106.789761,10.775663],[106.789613,10.775313],[106.789426,10.775212],[106.788955,10.775384],[106.788256,10.775932],[106.787649,10.776222],[106.787347,10.776517],[106.786962,10.776645],[106.786817,10.776577],[106.786432,10.776119],[106.785881,10.775619],[106.785763,10.774928],[106.785724,10.774854],[106.785421,10.774732],[106.785114,10.77478],[106.784665,10.775028],[106.784133,10.775175],[106.783631,10.775186],[106.783143,10.775414],[106.781868,10.775713],[106.781291,10.775632],[106.779389,10.775885],[106.779118,10.775813],[106.778936,10.77566],[106.777799,10.775744],[106.77742,10.775841],[106.776962,10.776078],[106.775628,10.776241],[106.775186,10.776222],[106.77442,10.776068],[106.773765,10.776114],[106.772995,10.776075],[106.773052,10.776951],[106.772487,10.77705],[106.772323,10.778035],[106.772359,10.778802],[106.772887,10.779289],[106.772932,10.779502],[106.772727,10.779819],[106.772562,10.77983],[106.772258,10.780007],[106.771648,10.780635],[106.771245,10.782084],[106.766656,10.781613],[106.765993,10.781652],[106.76535,10.78147],[106.765379,10.781816],[106.765096,10.781863],[106.764851,10.78163],[106.76391,10.781584],[106.763646,10.781801],[106.763662,10.781845],[106.76375,10.781808],[106.763739,10.782024],[106.763492,10.782152],[106.762988,10.782117],[106.76206,10.782457],[106.761341,10.78247],[106.760826,10.78241],[106.760625,10.782132],[106.758834,10.78283],[106.757957,10.783394],[106.757277,10.783229],[106.756491,10.782853],[106.756129,10.78293],[106.75504,10.782743],[106.754877,10.782515],[106.754655,10.782414],[106.754626,10.782271],[106.754376,10.782264],[106.754297,10.781981],[106.754379,10.781822],[106.754363,10.781374],[106.753386,10.781081],[106.752188,10.77982],[106.752067,10.779648],[106.752112,10.779598],[106.751348,10.778574],[106.75064,10.777102],[106.75,10.776004],[106.749449,10.775354],[106.749333,10.77531],[106.74923,10.775356],[106.747535,10.773561],[106.746626,10.774362],[106.745194,10.775489]]]},"properties":{"name":"Bình Trưng","full_name":"Phường Bình Trưng","area_km2":"14.82","population":"121382","former_units":"Phường Bình Trưng Đông, Phường Bình Trưng Tây, Phường An Phú (thành phố Thủ Đức)","source_id":"xa2729"},"type":"Feature"},{"geometry":{"type":"Polygon","coordinates":[[[106.758508,10.782999],[106.760625,10.782132],[106.760826,10.78241],[106.761341,10.78247],[106.76206,10.782457],[106.762988,10.782117],[106.763492,10.782152],[106.763739,10.782024],[106.76375,10.781808],[106.763662,10.781845],[106.763646,10.781801],[106.76391,10.781584],[106.764851,10.78163],[106.765096,10.781863],[106.765379,10.781816],[106.76535,10.78147],[106.765993,10.781652],[106.766656,10.781613],[106.771245,10.782084],[106.771648,10.780635],[106.772258,10.780007],[106.772562,10.77983],[106.772727,10.779819],[106.772932,10.779502],[106.772887,10.779289],[106.772359,10.778802],[106.772323,10.778035],[106.772487,10.77705],[106.773052,10.776951],[106.772995,10.776075],[106.773765,10.776114],[106.77442,10.776068],[106.775186,10.776222],[106.775628,10.776241],[106.776962,10.776078],[106.77742,10.775841],[106.777799,10.775744],[106.778936,10.77566],[106.779118,10.775813],[106.779389,10.775885],[106.781291,10.775632],[106.781868,10.775713],[106.783143,10.775414],[106.783631,10.775186],[106.784133,10.775175],[106.784665,10.775028],[106.785114,10.77478],[106.785421,10.774732],[106.785724,10.774854],[106.785763,10.774928],[106.785881,10.775619],[106.786916,10.776639],[106.787347,10.776517],[106.787649,10.776222],[106.788256,10.775932],[106.788955,10.775384],[106.789426,10.775212],[106.789613,10.775313],[106.789761,10.775663],[106.789639,10.776338],[106.789695,10.777914],[106.789909,10.778542],[106.791196,10.778435],[106.792983,10.778455],[106.79428,10.778544],[106.795805,10.778779],[106.796527,10.778822],[106.797404,10.778666],[106.797672,10.778535],[106.797856,10.778358],[106.79809,10.777762],[106.798324,10.776533],[106.798533,10.776201],[106.798726,10.77604],[106.799055,10.775981],[106.800419,10.775973],[106.800989,10.775874],[106.801612,10.775657],[106.802003,10.775415],[106.802557,10.774901],[106.803255,10.775312],[106.804282,10.776159],[106.806478,10.776048],[106.807239,10.775924],[106.80776,10.77564],[106.810012,10.774685],[106.807601,10.772292],[106.806145,10.770721],[106.80569,10.770076],[106.805316,10.769196],[106.805116,10.768457],[106.804536,10.765462],[106.804182,10.764379],[106.803773,10.76357],[106.802563,10.761829],[106.800936,10.760143],[106.799113,10.758869],[106.79103,10.75527],[106.787576,10.753832],[106.785405,10.752817],[106.781781,10.751297],[106.778082,10.750093],[106.775868,10.748983],[106.77372,10.74774],[106.76996,10.744565],[106.769662,10.744218],[106.762493,10.744538],[106.758816,10.744463],[106.75712,10.743946],[106.751781,10.741902],[106.750441,10.741717],[106.7492,10.741796],[106.748179,10.742127],[106.747345,10.742565],[106.746669,10.742741],[106.745937,10.743281],[106.745054,10.74453],[106.744594,10.745432],[106.744367,10.746237],[106.744239,10.747519],[106.744516,10.74898],[106.745282,10.751163],[106.746125,10.752919],[106.746632,10.7537],[106.751781,10.759933],[106.752352,10.761078],[106.75287,10.762912],[106.753008,10.764076],[106.752883,10.765136],[106.752587,10.766573],[106.751781,10.769424],[106.747535,10.773561],[106.74923,10.775356],[106.749333,10.77531],[106.749449,10.775354],[106.75,10.776004],[106.75064,10.777102],[106.751348,10.778574],[106.752112,10.779598],[106.752067,10.779648],[106.752188,10.77982],[106.753386,10.781081],[106.754363,10.781374],[106.754379,10.781822],[106.754297,10.781981],[106.754376,10.782264],[106.754626,10.782271],[106.754655,10.782414],[106.754877,10.782515],[106.75504,10.782743],[106.756129,10.78293],[106.756491,10.782853],[106.757277,10.783229],[106.757957,10.783394],[106.758508,10.782999]]]},"properties":{"name":"Cát Lái","full_name":"Phường Cát Lái","area_km2":"19.65","population":"68654","former_units":"Phường Thạnh Mỹ Lợi, Phường Cát Lái","source_id":"xa2731"},"type":"Feature"}]}